{
  "type": "FeatureCollection",
  "metadata": {
    "cooperative": "Ondera Farmers Cooperative Society",
    "generated_at": "2026-10-04 00:30:57"
  },
  "features": [
    {
      "type": "Feature",
      "geometry": {
        "type": "Point",
        "coordinates": [
          36.945,
          -0.412
        ]
      },
      "properties": {
        "farmer_id": 1042,
        "farmer_name": "Noor Chemutai (Upper Slope)",
        "elevation_m": 1850,
        "hectares": 2.0,
        "risk_pct": 82,
        "status_code": 2,
        "status_label": "CRITICAL_ACTION",
        "marker_color": "#dc2626"
      }
    },
    {
      "type": "Feature",
      "geometry": {
        "type": "Point",
        "coordinates": [
          36.924,
          -0.41238
        ]
      },
      "properties": {
        "farmer_id": 1001,
        "farmer_name": "Member #1001",
        "elevation_m": 1765,
        "hectares": 3.1,
        "risk_pct": 56,
        "status_code": 1,
        "status_label": "UNCERTAIN_ESCALATION",
        "marker_color": "#eab308"
      }
    },
    {
      "type": "Feature",
      "geometry": {
        "type": "Point",
        "coordinates": [
          36.90122,
          -0.39649
        ]
      },
      "properties": {
        "farmer_id": 1002,
        "farmer_name": "Member #1002",
        "elevation_m": 1797,
        "hectares": 3.4,
        "risk_pct": 88,
        "status_code": 2,
        "status_label": "CRITICAL_ACTION",
        "marker_color": "#dc2626"
      }
    },
    {
      "type": "Feature",
      "geometry": {
        "type": "Point",
        "coordinates": [
          36.94209,
          -0.4168
        ]
      },
      "properties": {
        "farmer_id": 1003,
        "farmer_name": "Member #1003",
        "elevation_m": 1756,
        "hectares": 1.1,
        "risk_pct": 47,
        "status_code": 1,
        "status_label": "UNCERTAIN_ESCALATION",
        "marker_color": "#eab308"
      }
    },
    {
      "type": "Feature",
      "geometry": {
        "type": "Point",
        "coordinates": [
          36.97198,
          -0.44133
        ]
      },
      "properties": {
        "farmer_id": 1004,
        "farmer_name": "Member #1004",
        "elevation_m": 1707,
        "hectares": 3.3,
        "risk_pct": 73,
        "status_code": 1,
        "status_label": "UNCERTAIN_ESCALATION",
        "marker_color": "#eab308"
      }
    },
    {
      "type": "Feature",
      "geometry": {
        "type": "Point",
        "coordinates": [
          36.97818,
          -0.41835
        ]
      },
      "properties": {
        "farmer_id": 1005,
        "farmer_name": "Member #1005",
        "elevation_m": 1753,
        "hectares": 2.0,
        "risk_pct": 52,
        "status_code": 1,
        "status_label": "UNCERTAIN_ESCALATION",
        "marker_color": "#eab308"
      }
    },
    {
      "type": "Feature",
      "geometry": {
        "type": "Point",
        "coordinates": [
          36.95922,
          -0.44148
        ]
      },
      "properties": {
        "farmer_id": 1006,
        "farmer_name": "Member #1006",
        "elevation_m": 1707,
        "hectares": 1.0,
        "risk_pct": 69,
        "status_code": 1,
        "status_label": "UNCERTAIN_ESCALATION",
        "marker_color": "#eab308"
      }
    },
    {
      "type": "Feature",
      "geometry": {
        "type": "Point",
        "coordinates": [
          36.94875,
          -0.39804
        ]
      },
      "properties": {
        "farmer_id": 1007,
        "farmer_name": "Member #1007",
        "elevation_m": 1793,
        "hectares": 2.8,
        "risk_pct": 18,
        "status_code": 0,
        "status_label": "STABLE",
        "marker_color": "#16a34a"
      }
    },
    {
      "type": "Feature",
      "geometry": {
        "type": "Point",
        "coordinates": [
          36.98056,
          -0.43702
        ]
      },
      "properties": {
        "farmer_id": 1008,
        "farmer_name": "Member #1008",
        "elevation_m": 1715,
        "hectares": 3.2,
        "risk_pct": 24,
        "status_code": 0,
        "status_label": "STABLE",
        "marker_color": "#16a34a"
      }
    },
    {
      "type": "Feature",
      "geometry": {
        "type": "Point",
        "coordinates": [
          36.9412,
          -0.43071
        ]
      },
      "properties": {
        "farmer_id": 1009,
        "farmer_name": "Member #1009",
        "elevation_m": 1728,
        "hectares": 2.1,
        "risk_pct": 49,
        "status_code": 1,
        "status_label": "UNCERTAIN_ESCALATION",
        "marker_color": "#eab308"
      }
    },
    {
      "type": "Feature",
      "geometry": {
        "type": "Point",
        "coordinates": [
          36.96032,
          -0.41086
        ]
      },
      "properties": {
        "farmer_id": 1010,
        "farmer_name": "Member #1010",
        "elevation_m": 1768,
        "hectares": 2.6,
        "risk_pct": 21,
        "status_code": 0,
        "status_label": "STABLE",
        "marker_color": "#16a34a"
      }
    },
    {
      "type": "Feature",
      "geometry": {
        "type": "Point",
        "coordinates": [
          36.93984,
          -0.36646
        ]
      },
      "properties": {
        "farmer_id": 1011,
        "farmer_name": "Member #1011",
        "elevation_m": 1857,
        "hectares": 1.7,
        "risk_pct": 39,
        "status_code": 0,
        "status_label": "STABLE",
        "marker_color": "#16a34a"
      }
    },
    {
      "type": "Feature",
      "geometry": {
        "type": "Point",
        "coordinates": [
          36.9654,
          -0.44034
        ]
      },
      "properties": {
        "farmer_id": 1012,
        "farmer_name": "Member #1012",
        "elevation_m": 1709,
        "hectares": 1.3,
        "risk_pct": 61,
        "status_code": 1,
        "status_label": "UNCERTAIN_ESCALATION",
        "marker_color": "#eab308"
      }
    },
    {
      "type": "Feature",
      "geometry": {
        "type": "Point",
        "coordinates": [
          36.929,
          -0.42285
        ]
      },
      "properties": {
        "farmer_id": 1013,
        "farmer_name": "Member #1013",
        "elevation_m": 1744,
        "hectares": 1.4,
        "risk_pct": 88,
        "status_code": 2,
        "status_label": "CRITICAL_ACTION",
        "marker_color": "#dc2626"
      }
    },
    {
      "type": "Feature",
      "geometry": {
        "type": "Point",
        "coordinates": [
          36.96858,
          -0.40374
        ]
      },
      "properties": {
        "farmer_id": 1014,
        "farmer_name": "Member #1014",
        "elevation_m": 1782,
        "hectares": 3.0,
        "risk_pct": 36,
        "status_code": 0,
        "status_label": "STABLE",
        "marker_color": "#16a34a"
      }
    },
    {
      "type": "Feature",
      "geometry": {
        "type": "Point",
        "coordinates": [
          36.96358,
          -0.44928
        ]
      },
      "properties": {
        "farmer_id": 1015,
        "farmer_name": "Member #1015",
        "elevation_m": 1691,
        "hectares": 3.0,
        "risk_pct": 70,
        "status_code": 1,
        "status_label": "UNCERTAIN_ESCALATION",
        "marker_color": "#eab308"
      }
    },
    {
      "type": "Feature",
      "geometry": {
        "type": "Point",
        "coordinates": [
          36.95292,
          -0.4142
        ]
      },
      "properties": {
        "farmer_id": 1016,
        "farmer_name": "Member #1016",
        "elevation_m": 1761,
        "hectares": 1.6,
        "risk_pct": 50,
        "status_code": 1,
        "status_label": "UNCERTAIN_ESCALATION",
        "marker_color": "#eab308"
      }
    },
    {
      "type": "Feature",
      "geometry": {
        "type": "Point",
        "coordinates": [
          36.95559,
          -0.39821
        ]
      },
      "properties": {
        "farmer_id": 1017,
        "farmer_name": "Member #1017",
        "elevation_m": 1793,
        "hectares": 1.3,
        "risk_pct": 7,
        "status_code": 0,
        "status_label": "STABLE",
        "marker_color": "#16a34a"
      }
    },
    {
      "type": "Feature",
      "geometry": {
        "type": "Point",
        "coordinates": [
          36.95723,
          -0.41831
        ]
      },
      "properties": {
        "farmer_id": 1018,
        "farmer_name": "Member #1018",
        "elevation_m": 1753,
        "hectares": 2.6,
        "risk_pct": 36,
        "status_code": 0,
        "status_label": "STABLE",
        "marker_color": "#16a34a"
      }
    },
    {
      "type": "Feature",
      "geometry": {
        "type": "Point",
        "coordinates": [
          36.94201,
          -0.45643
        ]
      },
      "properties": {
        "farmer_id": 1019,
        "farmer_name": "Member #1019",
        "elevation_m": 1677,
        "hectares": 2.0,
        "risk_pct": 22,
        "status_code": 0,
        "status_label": "STABLE",
        "marker_color": "#16a34a"
      }
    },
    {
      "type": "Feature",
      "geometry": {
        "type": "Point",
        "coordinates": [
          36.94312,
          -0.43597
        ]
      },
      "properties": {
        "farmer_id": 1020,
        "farmer_name": "Member #1020",
        "elevation_m": 1718,
        "hectares": 1.1,
        "risk_pct": 97,
        "status_code": 2,
        "status_label": "CRITICAL_ACTION",
        "marker_color": "#dc2626"
      }
    },
    {
      "type": "Feature",
      "geometry": {
        "type": "Point",
        "coordinates": [
          36.97421,
          -0.44165
        ]
      },
      "properties": {
        "farmer_id": 1021,
        "farmer_name": "Member #1021",
        "elevation_m": 1706,
        "hectares": 2.3,
        "risk_pct": 94,
        "status_code": 2,
        "status_label": "CRITICAL_ACTION",
        "marker_color": "#dc2626"
      }
    },
    {
      "type": "Feature",
      "geometry": {
        "type": "Point",
        "coordinates": [
          36.95407,
          -0.42837
        ]
      },
      "properties": {
        "farmer_id": 1022,
        "farmer_name": "Member #1022",
        "elevation_m": 1733,
        "hectares": 2.3,
        "risk_pct": 57,
        "status_code": 1,
        "status_label": "UNCERTAIN_ESCALATION",
        "marker_color": "#eab308"
      }
    },
    {
      "type": "Feature",
      "geometry": {
        "type": "Point",
        "coordinates": [
          36.96983,
          -0.40222
        ]
      },
      "properties": {
        "farmer_id": 1023,
        "farmer_name": "Member #1023",
        "elevation_m": 1785,
        "hectares": 0.9,
        "risk_pct": 6,
        "status_code": 0,
        "status_label": "STABLE",
        "marker_color": "#16a34a"
      }
    },
    {
      "type": "Feature",
      "geometry": {
        "type": "Point",
        "coordinates": [
          36.97145,
          -0.43156
        ]
      },
      "properties": {
        "farmer_id": 1024,
        "farmer_name": "Member #1024",
        "elevation_m": 1726,
        "hectares": 1.9,
        "risk_pct": 96,
        "status_code": 2,
        "status_label": "CRITICAL_ACTION",
        "marker_color": "#dc2626"
      }
    },
    {
      "type": "Feature",
      "geometry": {
        "type": "Point",
        "coordinates": [
          36.92167,
          -0.45189
        ]
      },
      "properties": {
        "farmer_id": 1025,
        "farmer_name": "Member #1025",
        "elevation_m": 1686,
        "hectares": 1.0,
        "risk_pct": 77,
        "status_code": 2,
        "status_label": "CRITICAL_ACTION",
        "marker_color": "#dc2626"
      }
    },
    {
      "type": "Feature",
      "geometry": {
        "type": "Point",
        "coordinates": [
          36.95356,
          -0.40757
        ]
      },
      "properties": {
        "farmer_id": 1026,
        "farmer_name": "Member #1026",
        "elevation_m": 1774,
        "hectares": 2.6,
        "risk_pct": 31,
        "status_code": 0,
        "status_label": "STABLE",
        "marker_color": "#16a34a"
      }
    },
    {
      "type": "Feature",
      "geometry": {
        "type": "Point",
        "coordinates": [
          36.95396,
          -0.43068
        ]
      },
      "properties": {
        "farmer_id": 1027,
        "farmer_name": "Member #1027",
        "elevation_m": 1728,
        "hectares": 2.6,
        "risk_pct": 80,
        "status_code": 2,
        "status_label": "CRITICAL_ACTION",
        "marker_color": "#dc2626"
      }
    },
    {
      "type": "Feature",
      "geometry": {
        "type": "Point",
        "coordinates": [
          36.96142,
          -0.42773
        ]
      },
      "properties": {
        "farmer_id": 1028,
        "farmer_name": "Member #1028",
        "elevation_m": 1734,
        "hectares": 1.3,
        "risk_pct": 83,
        "status_code": 2,
        "status_label": "CRITICAL_ACTION",
        "marker_color": "#dc2626"
      }
    },
    {
      "type": "Feature",
      "geometry": {
        "type": "Point",
        "coordinates": [
          36.94046,
          -0.42908
        ]
      },
      "properties": {
        "farmer_id": 1029,
        "farmer_name": "Member #1029",
        "elevation_m": 1731,
        "hectares": 2.8,
        "risk_pct": 33,
        "status_code": 0,
        "status_label": "STABLE",
        "marker_color": "#16a34a"
      }
    },
    {
      "type": "Feature",
      "geometry": {
        "type": "Point",
        "coordinates": [
          36.93826,
          -0.40783
        ]
      },
      "properties": {
        "farmer_id": 1030,
        "farmer_name": "Member #1030",
        "elevation_m": 1774,
        "hectares": 2.2,
        "risk_pct": 74,
        "status_code": 1,
        "status_label": "UNCERTAIN_ESCALATION",
        "marker_color": "#eab308"
      }
    },
    {
      "type": "Feature",
      "geometry": {
        "type": "Point",
        "coordinates": [
          36.96116,
          -0.40798
        ]
      },
      "properties": {
        "farmer_id": 1031,
        "farmer_name": "Member #1031",
        "elevation_m": 1774,
        "hectares": 2.0,
        "risk_pct": 10,
        "status_code": 0,
        "status_label": "STABLE",
        "marker_color": "#16a34a"
      }
    },
    {
      "type": "Feature",
      "geometry": {
        "type": "Point",
        "coordinates": [
          36.93942,
          -0.42246
        ]
      },
      "properties": {
        "farmer_id": 1032,
        "farmer_name": "Member #1032",
        "elevation_m": 1745,
        "hectares": 2.5,
        "risk_pct": 52,
        "status_code": 1,
        "status_label": "UNCERTAIN_ESCALATION",
        "marker_color": "#eab308"
      }
    },
    {
      "type": "Feature",
      "geometry": {
        "type": "Point",
        "coordinates": [
          36.91382,
          -0.46218
        ]
      },
      "properties": {
        "farmer_id": 1033,
        "farmer_name": "Member #1033",
        "elevation_m": 1665,
        "hectares": 1.1,
        "risk_pct": 98,
        "status_code": 2,
        "status_label": "CRITICAL_ACTION",
        "marker_color": "#dc2626"
      }
    },
    {
      "type": "Feature",
      "geometry": {
        "type": "Point",
        "coordinates": [
          36.95999,
          -0.44493
        ]
      },
      "properties": {
        "farmer_id": 1034,
        "farmer_name": "Member #1034",
        "elevation_m": 1700,
        "hectares": 2.7,
        "risk_pct": 55,
        "status_code": 1,
        "status_label": "UNCERTAIN_ESCALATION",
        "marker_color": "#eab308"
      }
    },
    {
      "type": "Feature",
      "geometry": {
        "type": "Point",
        "coordinates": [
          36.98248,
          -0.42945
        ]
      },
      "properties": {
        "farmer_id": 1035,
        "farmer_name": "Member #1035",
        "elevation_m": 1731,
        "hectares": 2.9,
        "risk_pct": 13,
        "status_code": 0,
        "status_label": "STABLE",
        "marker_color": "#16a34a"
      }
    },
    {
      "type": "Feature",
      "geometry": {
        "type": "Point",
        "coordinates": [
          36.92666,
          -0.40156
        ]
      },
      "properties": {
        "farmer_id": 1036,
        "farmer_name": "Member #1036",
        "elevation_m": 1786,
        "hectares": 1.5,
        "risk_pct": 88,
        "status_code": 2,
        "status_label": "CRITICAL_ACTION",
        "marker_color": "#dc2626"
      }
    },
    {
      "type": "Feature",
      "geometry": {
        "type": "Point",
        "coordinates": [
          36.94152,
          -0.44375
        ]
      },
      "properties": {
        "farmer_id": 1037,
        "farmer_name": "Member #1037",
        "elevation_m": 1702,
        "hectares": 2.0,
        "risk_pct": 41,
        "status_code": 1,
        "status_label": "UNCERTAIN_ESCALATION",
        "marker_color": "#eab308"
      }
    },
    {
      "type": "Feature",
      "geometry": {
        "type": "Point",
        "coordinates": [
          36.96086,
          -0.46318
        ]
      },
      "properties": {
        "farmer_id": 1038,
        "farmer_name": "Member #1038",
        "elevation_m": 1663,
        "hectares": 2.4,
        "risk_pct": 12,
        "status_code": 0,
        "status_label": "STABLE",
        "marker_color": "#16a34a"
      }
    },
    {
      "type": "Feature",
      "geometry": {
        "type": "Point",
        "coordinates": [
          36.91385,
          -0.43485
        ]
      },
      "properties": {
        "farmer_id": 1039,
        "farmer_name": "Member #1039",
        "elevation_m": 1720,
        "hectares": 2.8,
        "risk_pct": 13,
        "status_code": 0,
        "status_label": "STABLE",
        "marker_color": "#16a34a"
      }
    },
    {
      "type": "Feature",
      "geometry": {
        "type": "Point",
        "coordinates": [
          36.95582,
          -0.43324
        ]
      },
      "properties": {
        "farmer_id": 1040,
        "farmer_name": "Member #1040",
        "elevation_m": 1723,
        "hectares": 2.5,
        "risk_pct": 85,
        "status_code": 2,
        "status_label": "CRITICAL_ACTION",
        "marker_color": "#dc2626"
      }
    },
    {
      "type": "Feature",
      "geometry": {
        "type": "Point",
        "coordinates": [
          36.94402,
          -0.37996
        ]
      },
      "properties": {
        "farmer_id": 1041,
        "farmer_name": "Member #1041",
        "elevation_m": 1830,
        "hectares": 1.0,
        "risk_pct": 21,
        "status_code": 0,
        "status_label": "STABLE",
        "marker_color": "#16a34a"
      }
    },
    {
      "type": "Feature",
      "geometry": {
        "type": "Point",
        "coordinates": [
          36.945,
          -0.412
        ]
      },
      "properties": {
        "farmer_id": 1042,
        "farmer_name": "Noor Chemutai (Upper Slope)",
        "elevation_m": 1850,
        "hectares": 2.0,
        "risk_pct": 76,
        "status_code": 2,
        "status_label": "CRITICAL_ACTION",
        "marker_color": "#dc2626"
      }
    },
    {
      "type": "Feature",
      "geometry": {
        "type": "Point",
        "coordinates": [
          36.9555,
          -0.41552
        ]
      },
      "properties": {
        "farmer_id": 1043,
        "farmer_name": "Member #1043",
        "elevation_m": 1758,
        "hectares": 2.1,
        "risk_pct": 87,
        "status_code": 2,
        "status_label": "CRITICAL_ACTION",
        "marker_color": "#dc2626"
      }
    },
    {
      "type": "Feature",
      "geometry": {
        "type": "Point",
        "coordinates": [
          36.95892,
          -0.39912
        ]
      },
      "properties": {
        "farmer_id": 1044,
        "farmer_name": "Member #1044",
        "elevation_m": 1791,
        "hectares": 1.1,
        "risk_pct": 31,
        "status_code": 0,
        "status_label": "STABLE",
        "marker_color": "#16a34a"
      }
    },
    {
      "type": "Feature",
      "geometry": {
        "type": "Point",
        "coordinates": [
          36.93401,
          -0.44972
        ]
      },
      "properties": {
        "farmer_id": 1045,
        "farmer_name": "Member #1045",
        "elevation_m": 1690,
        "hectares": 3.3,
        "risk_pct": 49,
        "status_code": 1,
        "status_label": "UNCERTAIN_ESCALATION",
        "marker_color": "#eab308"
      }
    },
    {
      "type": "Feature",
      "geometry": {
        "type": "Point",
        "coordinates": [
          36.91558,
          -0.42975
        ]
      },
      "properties": {
        "farmer_id": 1046,
        "farmer_name": "Member #1046",
        "elevation_m": 1730,
        "hectares": 2.4,
        "risk_pct": 18,
        "status_code": 0,
        "status_label": "STABLE",
        "marker_color": "#16a34a"
      }
    },
    {
      "type": "Feature",
      "geometry": {
        "type": "Point",
        "coordinates": [
          36.91323,
          -0.42556
        ]
      },
      "properties": {
        "farmer_id": 1047,
        "farmer_name": "Member #1047",
        "elevation_m": 1738,
        "hectares": 2.1,
        "risk_pct": 34,
        "status_code": 0,
        "status_label": "STABLE",
        "marker_color": "#16a34a"
      }
    },
    {
      "type": "Feature",
      "geometry": {
        "type": "Point",
        "coordinates": [
          36.97095,
          -0.41216
        ]
      },
      "properties": {
        "farmer_id": 1048,
        "farmer_name": "Member #1048",
        "elevation_m": 1765,
        "hectares": 2.1,
        "risk_pct": 42,
        "status_code": 1,
        "status_label": "UNCERTAIN_ESCALATION",
        "marker_color": "#eab308"
      }
    },
    {
      "type": "Feature",
      "geometry": {
        "type": "Point",
        "coordinates": [
          36.96036,
          -0.34715
        ]
      },
      "properties": {
        "farmer_id": 1049,
        "farmer_name": "Member #1049",
        "elevation_m": 1895,
        "hectares": 2.3,
        "risk_pct": 66,
        "status_code": 1,
        "status_label": "UNCERTAIN_ESCALATION",
        "marker_color": "#eab308"
      }
    },
    {
      "type": "Feature",
      "geometry": {
        "type": "Point",
        "coordinates": [
          36.95669,
          -0.4733
        ]
      },
      "properties": {
        "farmer_id": 1050,
        "farmer_name": "Member #1050",
        "elevation_m": 1643,
        "hectares": 1.7,
        "risk_pct": 79,
        "status_code": 2,
        "status_label": "CRITICAL_ACTION",
        "marker_color": "#dc2626"
      }
    },
    {
      "type": "Feature",
      "geometry": {
        "type": "Point",
        "coordinates": [
          36.9347,
          -0.43038
        ]
      },
      "properties": {
        "farmer_id": 1051,
        "farmer_name": "Member #1051",
        "elevation_m": 1729,
        "hectares": 0.9,
        "risk_pct": 100,
        "status_code": 2,
        "status_label": "CRITICAL_ACTION",
        "marker_color": "#dc2626"
      }
    },
    {
      "type": "Feature",
      "geometry": {
        "type": "Point",
        "coordinates": [
          36.95393,
          -0.39335
        ]
      },
      "properties": {
        "farmer_id": 1052,
        "farmer_name": "Member #1052",
        "elevation_m": 1803,
        "hectares": 1.2,
        "risk_pct": 81,
        "status_code": 2,
        "status_label": "CRITICAL_ACTION",
        "marker_color": "#dc2626"
      }
    },
    {
      "type": "Feature",
      "geometry": {
        "type": "Point",
        "coordinates": [
          36.90813,
          -0.44589
        ]
      },
      "properties": {
        "farmer_id": 1053,
        "farmer_name": "Member #1053",
        "elevation_m": 1698,
        "hectares": 2.6,
        "risk_pct": 21,
        "status_code": 0,
        "status_label": "STABLE",
        "marker_color": "#16a34a"
      }
    },
    {
      "type": "Feature",
      "geometry": {
        "type": "Point",
        "coordinates": [
          36.9942,
          -0.42134
        ]
      },
      "properties": {
        "farmer_id": 1054,
        "farmer_name": "Member #1054",
        "elevation_m": 1747,
        "hectares": 2.9,
        "risk_pct": 13,
        "status_code": 0,
        "status_label": "STABLE",
        "marker_color": "#16a34a"
      }
    },
    {
      "type": "Feature",
      "geometry": {
        "type": "Point",
        "coordinates": [
          36.93752,
          -0.39543
        ]
      },
      "properties": {
        "farmer_id": 1055,
        "farmer_name": "Member #1055",
        "elevation_m": 1799,
        "hectares": 1.4,
        "risk_pct": 24,
        "status_code": 0,
        "status_label": "STABLE",
        "marker_color": "#16a34a"
      }
    },
    {
      "type": "Feature",
      "geometry": {
        "type": "Point",
        "coordinates": [
          36.93187,
          -0.44413
        ]
      },
      "properties": {
        "farmer_id": 1056,
        "farmer_name": "Member #1056",
        "elevation_m": 1701,
        "hectares": 1.8,
        "risk_pct": 92,
        "status_code": 2,
        "status_label": "CRITICAL_ACTION",
        "marker_color": "#dc2626"
      }
    },
    {
      "type": "Feature",
      "geometry": {
        "type": "Point",
        "coordinates": [
          36.97096,
          -0.44053
        ]
      },
      "properties": {
        "farmer_id": 1057,
        "farmer_name": "Member #1057",
        "elevation_m": 1708,
        "hectares": 1.7,
        "risk_pct": 3,
        "status_code": 0,
        "status_label": "STABLE",
        "marker_color": "#16a34a"
      }
    },
    {
      "type": "Feature",
      "geometry": {
        "type": "Point",
        "coordinates": [
          36.95962,
          -0.39671
        ]
      },
      "properties": {
        "farmer_id": 1058,
        "farmer_name": "Member #1058",
        "elevation_m": 1796,
        "hectares": 2.2,
        "risk_pct": 21,
        "status_code": 0,
        "status_label": "STABLE",
        "marker_color": "#16a34a"
      }
    },
    {
      "type": "Feature",
      "geometry": {
        "type": "Point",
        "coordinates": [
          36.93363,
          -0.42102
        ]
      },
      "properties": {
        "farmer_id": 1059,
        "farmer_name": "Member #1059",
        "elevation_m": 1747,
        "hectares": 1.2,
        "risk_pct": 88,
        "status_code": 2,
        "status_label": "CRITICAL_ACTION",
        "marker_color": "#dc2626"
      }
    },
    {
      "type": "Feature",
      "geometry": {
        "type": "Point",
        "coordinates": [
          36.91936,
          -0.43137
        ]
      },
      "properties": {
        "farmer_id": 1060,
        "farmer_name": "Member #1060",
        "elevation_m": 1727,
        "hectares": 3.5,
        "risk_pct": 44,
        "status_code": 1,
        "status_label": "UNCERTAIN_ESCALATION",
        "marker_color": "#eab308"
      }
    },
    {
      "type": "Feature",
      "geometry": {
        "type": "Point",
        "coordinates": [
          36.98948,
          -0.41569
        ]
      },
      "properties": {
        "farmer_id": 1061,
        "farmer_name": "Member #1061",
        "elevation_m": 1758,
        "hectares": 3.2,
        "risk_pct": 19,
        "status_code": 0,
        "status_label": "STABLE",
        "marker_color": "#16a34a"
      }
    },
    {
      "type": "Feature",
      "geometry": {
        "type": "Point",
        "coordinates": [
          36.95715,
          -0.42297
        ]
      },
      "properties": {
        "farmer_id": 1062,
        "farmer_name": "Member #1062",
        "elevation_m": 1744,
        "hectares": 1.7,
        "risk_pct": 33,
        "status_code": 0,
        "status_label": "STABLE",
        "marker_color": "#16a34a"
      }
    },
    {
      "type": "Feature",
      "geometry": {
        "type": "Point",
        "coordinates": [
          36.93973,
          -0.41452
        ]
      },
      "properties": {
        "farmer_id": 1063,
        "farmer_name": "Member #1063",
        "elevation_m": 1760,
        "hectares": 1.8,
        "risk_pct": 33,
        "status_code": 0,
        "status_label": "STABLE",
        "marker_color": "#16a34a"
      }
    },
    {
      "type": "Feature",
      "geometry": {
        "type": "Point",
        "coordinates": [
          36.98839,
          -0.40928
        ]
      },
      "properties": {
        "farmer_id": 1064,
        "farmer_name": "Member #1064",
        "elevation_m": 1771,
        "hectares": 1.5,
        "risk_pct": 48,
        "status_code": 1,
        "status_label": "UNCERTAIN_ESCALATION",
        "marker_color": "#eab308"
      }
    },
    {
      "type": "Feature",
      "geometry": {
        "type": "Point",
        "coordinates": [
          36.9158,
          -0.45061
        ]
      },
      "properties": {
        "farmer_id": 1065,
        "farmer_name": "Member #1065",
        "elevation_m": 1688,
        "hectares": 1.1,
        "risk_pct": 32,
        "status_code": 0,
        "status_label": "STABLE",
        "marker_color": "#16a34a"
      }
    },
    {
      "type": "Feature",
      "geometry": {
        "type": "Point",
        "coordinates": [
          36.94551,
          -0.37691
        ]
      },
      "properties": {
        "farmer_id": 1066,
        "farmer_name": "Member #1066",
        "elevation_m": 1836,
        "hectares": 1.3,
        "risk_pct": 91,
        "status_code": 2,
        "status_label": "CRITICAL_ACTION",
        "marker_color": "#dc2626"
      }
    },
    {
      "type": "Feature",
      "geometry": {
        "type": "Point",
        "coordinates": [
          36.92232,
          -0.38346
        ]
      },
      "properties": {
        "farmer_id": 1067,
        "farmer_name": "Member #1067",
        "elevation_m": 1823,
        "hectares": 1.6,
        "risk_pct": 1,
        "status_code": 0,
        "status_label": "STABLE",
        "marker_color": "#16a34a"
      }
    },
    {
      "type": "Feature",
      "geometry": {
        "type": "Point",
        "coordinates": [
          36.94013,
          -0.40392
        ]
      },
      "properties": {
        "farmer_id": 1068,
        "farmer_name": "Member #1068",
        "elevation_m": 1782,
        "hectares": 2.2,
        "risk_pct": 87,
        "status_code": 2,
        "status_label": "CRITICAL_ACTION",
        "marker_color": "#dc2626"
      }
    },
    {
      "type": "Feature",
      "geometry": {
        "type": "Point",
        "coordinates": [
          36.95844,
          -0.42409
        ]
      },
      "properties": {
        "farmer_id": 1069,
        "farmer_name": "Member #1069",
        "elevation_m": 1741,
        "hectares": 1.4,
        "risk_pct": 77,
        "status_code": 2,
        "status_label": "CRITICAL_ACTION",
        "marker_color": "#dc2626"
      }
    },
    {
      "type": "Feature",
      "geometry": {
        "type": "Point",
        "coordinates": [
          36.9661,
          -0.41774
        ]
      },
      "properties": {
        "farmer_id": 1070,
        "farmer_name": "Member #1070",
        "elevation_m": 1754,
        "hectares": 1.1,
        "risk_pct": 63,
        "status_code": 1,
        "status_label": "UNCERTAIN_ESCALATION",
        "marker_color": "#eab308"
      }
    },
    {
      "type": "Feature",
      "geometry": {
        "type": "Point",
        "coordinates": [
          36.92892,
          -0.42122
        ]
      },
      "properties": {
        "farmer_id": 1071,
        "farmer_name": "Member #1071",
        "elevation_m": 1747,
        "hectares": 2.4,
        "risk_pct": 15,
        "status_code": 0,
        "status_label": "STABLE",
        "marker_color": "#16a34a"
      }
    },
    {
      "type": "Feature",
      "geometry": {
        "type": "Point",
        "coordinates": [
          36.94165,
          -0.44195
        ]
      },
      "properties": {
        "farmer_id": 1072,
        "farmer_name": "Member #1072",
        "elevation_m": 1706,
        "hectares": 2.7,
        "risk_pct": 16,
        "status_code": 0,
        "status_label": "STABLE",
        "marker_color": "#16a34a"
      }
    },
    {
      "type": "Feature",
      "geometry": {
        "type": "Point",
        "coordinates": [
          36.95077,
          -0.45316
        ]
      },
      "properties": {
        "farmer_id": 1073,
        "farmer_name": "Member #1073",
        "elevation_m": 1683,
        "hectares": 1.1,
        "risk_pct": 76,
        "status_code": 2,
        "status_label": "CRITICAL_ACTION",
        "marker_color": "#dc2626"
      }
    },
    {
      "type": "Feature",
      "geometry": {
        "type": "Point",
        "coordinates": [
          36.9379,
          -0.40779
        ]
      },
      "properties": {
        "farmer_id": 1074,
        "farmer_name": "Member #1074",
        "elevation_m": 1774,
        "hectares": 1.6,
        "risk_pct": 22,
        "status_code": 0,
        "status_label": "STABLE",
        "marker_color": "#16a34a"
      }
    },
    {
      "type": "Feature",
      "geometry": {
        "type": "Point",
        "coordinates": [
          36.96345,
          -0.39493
        ]
      },
      "properties": {
        "farmer_id": 1075,
        "farmer_name": "Member #1075",
        "elevation_m": 1800,
        "hectares": 3.4,
        "risk_pct": 39,
        "status_code": 0,
        "status_label": "STABLE",
        "marker_color": "#16a34a"
      }
    },
    {
      "type": "Feature",
      "geometry": {
        "type": "Point",
        "coordinates": [
          36.9326,
          -0.42386
        ]
      },
      "properties": {
        "farmer_id": 1076,
        "farmer_name": "Member #1076",
        "elevation_m": 1742,
        "hectares": 0.9,
        "risk_pct": 79,
        "status_code": 2,
        "status_label": "CRITICAL_ACTION",
        "marker_color": "#dc2626"
      }
    },
    {
      "type": "Feature",
      "geometry": {
        "type": "Point",
        "coordinates": [
          36.95441,
          -0.41394
        ]
      },
      "properties": {
        "farmer_id": 1077,
        "farmer_name": "Member #1077",
        "elevation_m": 1762,
        "hectares": 1.1,
        "risk_pct": 33,
        "status_code": 0,
        "status_label": "STABLE",
        "marker_color": "#16a34a"
      }
    },
    {
      "type": "Feature",
      "geometry": {
        "type": "Point",
        "coordinates": [
          36.95571,
          -0.41774
        ]
      },
      "properties": {
        "farmer_id": 1078,
        "farmer_name": "Member #1078",
        "elevation_m": 1754,
        "hectares": 3.4,
        "risk_pct": 86,
        "status_code": 2,
        "status_label": "CRITICAL_ACTION",
        "marker_color": "#dc2626"
      }
    },
    {
      "type": "Feature",
      "geometry": {
        "type": "Point",
        "coordinates": [
          36.92867,
          -0.37308
        ]
      },
      "properties": {
        "farmer_id": 1079,
        "farmer_name": "Member #1079",
        "elevation_m": 1843,
        "hectares": 3.0,
        "risk_pct": 72,
        "status_code": 1,
        "status_label": "UNCERTAIN_ESCALATION",
        "marker_color": "#eab308"
      }
    }
  ]
}